HIMAWARI-8              
1 40267U 14060A   24058.80059578 -.00000268  00000+0  00000+0 0  9996
2 40267   0.0282 200.4898 0000913 139.7114 245.7923  1.00272801 34430
